NORAD_CAT_ID,OBJECT_NAME,OBJECT_TYPE,EPOCH,MEAN_MOTION,ECCENTRICITY,INCLINATION,RA_OF_ASC_NODE,ARG_OF_PERICENTER,MEAN_ANOMALY,BSTAR,MEAN_MOTION_DOT,MEAN_MOTION_DDOT,TLE_LINE0,TLE_LINE1,TLE_LINE2,SEMIMAJOR_AXIS,PERIOD,APOGEE,PERIGEE,DECAYED
52100.0,STARLINK-3702,PAYLOAD,2022-12-27 21:59:02,15.088452900000002,0.0002013,53.2176,291.4757,41.1111,319.0033,0.00020989,3.054e-05,0.0,0 STARLINK-3702,1 52100U 22029N   22361.91600430  .00003054  00000-0  20989-3 0  9993,2 52100  53.2176 291.4757 0002013  41.1111 319.0033 15.08845290 44362,6917.864000000001,95.437,541.122,538.337,0.0
52100.0,STARLINK-3702,PAYLOAD,2022-12-28 01:09:48,15.08848117,0.0002005999999999,53.2176,290.881,40.8599,319.2543,0.00023204,3.408e-05,0.0,0 STARLINK-3702,1 52100U 22029N   22362.04848194  .00003408  00000-0  23204-3 0  9995,2 52100  53.2176 290.8810 0002006  40.8599 319.2543 15.08848117 44384,6917.856,95.437,541.1080000000002,538.3330000000002,0.0
52100.0,STARLINK-3702,PAYLOAD,2022-12-28 21:49:50,15.08834229,0.0002286,53.22,287.0129,30.9544,329.1583,6.6191e-05,7.65e-06,0.0,0 STARLINK-3702,1 52100U 22029N   22362.90961524  .00000765  00000-0  66191-4 0  9999,2 52100  53.2200 287.0129 0002286  30.9544 329.1583 15.08834229 44511,6917.898,95.438,541.344,538.182,0.0
52100.0,STARLINK-3702,PAYLOAD,2022-12-29 12:08:19,15.08830293,0.0002165999999999,53.2175,284.3388,41.2484,318.8671,-0.00010537,-1.964e-05,0.0,0 STARLINK-3702,1 52100U 22029N   22363.50578570 -.00001964  00000-0 -10537-3 0  9997,2 52100  53.2175 284.3388 0002166  41.2484 318.8671 15.08830293 44604,6917.91,95.438,541.273,538.2769999999998,0.0
52100.0,STARLINK-3702,PAYLOAD,2022-12-30 04:02:10,15.08839713,0.0001971,53.2187,281.3626,41.2686,318.8455,-8.446799999999999e-05,-1.632e-05,0.0,0 STARLINK-3702,1 52100U 22029N   22364.16818096 -.00001632  00000-0 -84468-4 0  9997,2 52100  53.2187 281.3626 0001971  41.2686 318.8455 15.08839713 44703,6917.880999999999,95.438,541.11,538.383,0.0
52100.0,STARLINK-3702,PAYLOAD,2022-12-30 11:59:05,15.08852427,0.0001531999999999,53.2173,279.8801,47.207,312.905,-2.9724e-05,-7.61e-06,0.0,0 STARLINK-3702,1 52100U 22029N   22364.49936992 -.00000761  00000-0 -29724-4 0  9995,2 52100  53.2173 279.8801 0001532  47.2070 312.9050 15.08852427 44759,6917.842,95.437,540.7669999999998,538.648,0.0
52100.0,STARLINK-3702,PAYLOAD,2022-12-31 03:52:55,15.08859658,0.0002065,53.2188,276.9005,49.7604,310.3569,0.00035376,5.349e-05,0.0,0 STARLINK-3702,1 52100U 22029N   22365.16175346  .00005349  00000-0  35376-3 0  9992,2 52100  53.2188 276.9005 0002065  49.7604 310.3569 15.08859658 44852,6917.82,95.436,541.114,538.257,0.0
52100.0,STARLINK-3702,PAYLOAD,2022-12-31 11:49:51,15.08852656,0.0002214,53.2175,275.4184,40.551,319.5647,0.0003449,5.207e-05,0.0,0 STARLINK-3702,1 52100U 22029N   22365.49295705  .00005207  00000-0  34490-3 0  9999,2 52100  53.2175 275.4184 0002214  40.5510 319.5647 15.08852656 44906,6917.842,95.437,541.238,538.175,0.0
52100.0,STARLINK-3702,PAYLOAD,2023-01-01 03:43:43,15.08839716,0.0001996999999999,53.2168,272.444,36.9618,323.1512,-1.4351e-05,-5.17e-06,0.0,0 STARLINK-3702,1 52100U 22029N   23001.15536931 -.00000517  00000-0 -14351-4 0  9995,2 52100  53.2168 272.4440 0001997  36.9618 323.1512 15.08839716 45001,6917.880999999999,95.438,541.128,538.365,0.0
52100.0,STARLINK-3702,PAYLOAD,2023-01-01 18:02:12,15.08824527,0.0002018,53.2172,269.7648,44.6787,315.4367,-0.00047872,-7.896e-05,0.0,0 STARLINK-3702,1 52100U 22029N   23001.75153639 -.00007896  00000-0 -47872-3 0  9991,2 52100  53.2172 269.7648 0002018  44.6787 315.4367 15.08824527 45098,6917.928000000001,95.439,541.189,538.3969999999998,0.0
52100.0,STARLINK-3702,PAYLOAD,2023-01-02 01:59:08,15.08826886,0.0002070999999999,53.2171,268.28,40.4368,319.6778,-0.00028556,-4.829e-05,0.0,0 STARLINK-3702,1 52100U 22029N   23002.08273882 -.00004829  00000-0 -28556-3 0  9992,2 52100  53.2171 268.2800 0002071  40.4368 319.6778 15.08826886 45147,6917.92,95.438,541.2180000000002,538.3530000000002,0.0
52100.0,STARLINK-3702,PAYLOAD,2023-01-02 03:34:31,15.08827966,0.0002068,53.2173,267.9829,39.9081,320.2063,-0.00022377,-3.847e-05,0.0,0 STARLINK-3702,1 52100U 22029N   23002.14897906 -.00003847  00000-0 -22377-3 0  9992,2 52100  53.2173 267.9829 0002068  39.9081 320.2063 15.08827966 45153,6917.917,95.438,541.2130000000002,538.352,0.0
52100.0,STARLINK-3702,PAYLOAD,2023-01-03 03:25:19,15.08845769,0.0002089999999999,53.2166,263.5242,36.7707,323.3428,0.00076301,0.00011878,0.0,0 STARLINK-3702,1 52100U 22029N   23003.14258570  .00011878  00000-0  76301-3 0  9998,2 52100  53.2166 263.5242 0002090  36.7707 323.3428 15.08845769 45308,6917.863,95.437,541.174,538.2819999999998,0.0
52100.0,STARLINK-3702,PAYLOAD,2023-01-03 17:43:47,15.08831973,0.0002372,53.2194,260.85,14.4768,345.6292,-0.00016089,-2.848e-05,0.0,0 STARLINK-3702,1 52100U 22029N   23003.73874853 -.00002848  00000-0 -16089-3 0  9997,2 52100  53.2194 260.8500 0002372  14.4768 345.6292 15.08831973 45396,6917.905,95.438,541.411,538.129,0.0
52100.0,STARLINK-3702,PAYLOAD,2023-01-04 00:05:20,15.08842923,0.0002089999999999,53.2165,259.6583,41.5727,318.5424,0.00034993,5.286e-05,0.0,0 STARLINK-3702,1 52100U 22029N   23004.00370768  .00005286  00000-0  34993-3 0  9995,2 52100  53.2165 259.6583 0002090  41.5727 318.5424 15.08842923 45432,6917.871,95.437,541.182,538.2909999999998,0.0
52100.0,STARLINK-3702,PAYLOAD,2023-01-04 09:37:39,15.08853159,0.00022,53.2162,257.8745,42.401,317.7151,0.00079932,0.00012461,0.0,0 STARLINK-3702,1 52100U 22029N   23004.40114616  .00012461  00000-0  79932-3 0  9992,2 52100  53.2162 257.8745 0002200  42.4010 317.7151 15.08853159 45494,6917.84,95.437,541.227,538.183,0.0
52100.0,STARLINK-3702,PAYLOAD,2023-01-05 03:06:53,15.08857854,0.0002144,53.2158,254.603,42.5766,317.5392,0.00056573,8.731e-05,0.0,0 STARLINK-3702,1 52100U 22029N   23005.12978028  .00008731  00000-0  56573-3 0  9998,2 52100  53.2158 254.6030 0002144  42.5766 317.5392 15.08857854 45601,6917.826,95.436,541.174,538.2080000000002,0.0
52100.0,STARLINK-3702,PAYLOAD,2023-01-05 09:28:25,15.08867233,0.0002150999999999,53.2157,253.4141,42.4399,317.6759,0.00064411,9.985e-05,0.0,0 STARLINK-3702,1 52100U 22029N   23005.39473453  .00009985  00000-0  64411-3 0  9991,2 52100  53.2157 253.4141 0002151  42.4399 317.6759 15.08867233 45643,6917.797,95.436,541.15,538.174,0.0
52100.0,STARLINK-3702,PAYLOAD,2023-01-05 17:25:20,15.08872052,0.0002177,53.2154,251.9275,43.1494,316.9668,0.00056154,8.668e-05,0.0,0 STARLINK-3702,1 52100U 22029N   23005.72592822  .00008668  00000-0  56154-3 0  9992,2 52100  53.2154 251.9275 0002177  43.1494 316.9668 15.08872052 45694,6917.781999999997,95.436,541.153,538.141,0.0
52100.0,STARLINK-3702,PAYLOAD,2023-01-06 09:19:12,15.08841685,0.0004144,53.2144,248.9543,59.3975,300.7425,-0.00018614,-3.251e-05,0.0,0 STARLINK-3702,1 52100U 22029N   23006.38833757 -.00003251  00000-0 -18614-3 0  9994,2 52100  53.2144 248.9543 0004144  59.3975 300.7425 15.08841685 45797,6917.875,95.437,542.607,536.873,0.0
52100.0,STARLINK-3702,PAYLOAD,2023-01-06 18:51:30,15.08841196,0.0002212,53.2145,247.1694,41.5815,318.5345,-0.00015273,-2.718e-05,0.0,0 STARLINK-3702,1 52100U 22029N   23006.78576873 -.00002718  00000-0 -15273-3 0  9996,2 52100  53.2145 247.1694 0002212  41.5815 318.5345 15.08841196 45858,6917.877,95.437,541.2719999999998,538.211,0.0
52100.0,STARLINK-3702,PAYLOAD,2023-01-07 01:13:03,15.08834403,0.0002293,53.2144,245.9804,40.7485,319.3679,-0.00014761,-2.637e-05,0.0,0 STARLINK-3702,1 52100U 22029N   23007.05073176 -.00002637  00000-0 -14761-3 0  9996,2 52100  53.2144 245.9804 0002293  40.7485 319.3679 15.08834403 45895,6917.897,95.438,541.349,538.1759999999998,0.0
52100.0,STARLINK-3702,PAYLOAD,2023-01-07 21:53:04,15.08828797,0.0002415,53.2144,242.1145,42.4995,317.6184,3.0893000000000004e-05,2.03e-06,0.0,0 STARLINK-3702,1 52100U 22029N   23007.91186157  .00000203  00000-0  30893-4 0  9995,2 52100  53.2144 242.1145 0002415  42.4995 317.6184 15.08828797 46020,6917.915,95.438,541.45,538.109,0.0
52100.0,STARLINK-3702,PAYLOAD,2023-01-08 09:00:47,15.08831325,0.0002107,53.2149,240.033,38.3586,321.7556,0.00010279,1.348e-05,0.0,0 STARLINK-3702,1 52100U 22029N   23008.37554461  .00001348  00000-0  10279-3 0  9999,2 52100  53.2149 240.0330 0002107  38.3586 321.7556 15.08831325 46093,6917.906999999998,95.438,541.23,538.314,0.0
52100.0,STARLINK-3702,PAYLOAD,2023-01-09 00:54:38,15.08839995,0.000209,53.215,237.0579,42.5014,317.6140000000001,0.00022336,3.268e-05,0.0,0 STARLINK-3702,1 52100U 22029N   23009.03794500  .00003268  00000-0  22336-3 0  9993,2 52100  53.2150 237.0579 0002090  42.5014 317.6140 15.08839995 46195,6917.88,95.438,541.191,538.3,0.0
52100.0,STARLINK-3702,PAYLOAD,2023-01-09 15:13:07,15.08836258,0.000244,53.2144,234.3835,36.2127,323.903,0.00020381,2.957e-05,0.0,0 STARLINK-3702,1 52100U 22029N   23009.63411065  .00002957  00000-0  20381-3 0  9993,2 52100  53.2144 234.3835 0002440  36.2127 323.9030 15.08836258 46284,6917.892,95.438,541.445,538.069,0.0
52100.0,STARLINK-3702,PAYLOAD,2023-01-09 21:34:39,15.0883983,0.0002262,53.2139,233.1928,40.0655,320.0504,0.00035554,5.375e-05,0.0,0 STARLINK-3702,1 52100U 22029N   23009.89906924  .00005375  00000-0  35554-3 0  9999,2 52100  53.2139 233.1928 0002262  40.0655 320.0504 15.08839830 46327,6917.880999999999,95.438,541.311,538.181,0.0
52100.0,STARLINK-3702,PAYLOAD,2023-01-10 00:45:25,15.08846012,0.000237,53.2146,232.5978,42.5825,317.535,0.00033158,4.994e-05,0.0,0 STARLINK-3702,1 52100U 22029N   23010.03154728  .00004994  00000-0  33158-3 0  9998,2 52100  53.2146 232.5978 0002370  42.5825 317.5350 15.08846012 46341,6917.861999999999,95.437,541.367,538.087,0.0
52100.0,STARLINK-3702,PAYLOAD,2023-01-10 15:03:54,15.08842134,0.0002631999999999,53.2097,229.9224,49.9676,310.1546,0.00012079,1.635e-05,0.0,0 STARLINK-3702,1 52100U 22029N   23010.62770933  .00001635  00000-0  12079-3 0  9993,2 52100  53.2097 229.9224 0002632  49.9676 310.1546 15.08842134 46433,6917.874,95.437,541.56,537.918,0.0
